STARLINK-36622          
1 67667U 26022V   26050.58336806 -.00105826  00000+0 -71544-3 0  9993
2 67667  97.2842  83.7085 0001219  78.7881 200.9662 15.75254545  3987
STARLINK-36625          
1 67668U 26022W   26050.58336806 -.00051982  00000+0 -34910-3 0  9993
2 67668  97.2845  83.7117 0001125  98.0745 189.6627 15.75234212  3980
STARLINK-36639          
1 67669U 26022X   26050.58336806 -.00105685  00000+0 -71412-3 0  9992
2 67669  97.2846  83.7158 0001360  93.4413 204.2937 15.75265620  3984
STARLINK-36596          
1 67670U 26022Y   26050.58336806 -.00093453  00000+0 -63074-3 0  9998
2 67670  97.2847  83.7193 0001434 107.7474 199.9845 15.75255571  3986
STARLINK-36297          
1 67671U 26022Z   26050.58336806 -.00095732  00000+0 -64654-3 0  9996
2 67671  97.2852  83.7249 0001171  86.4403 233.2953 15.75248330  3985
STARLINK-36616          
1 67672U 26022AA  26050.58336806 -.00073053  00000+0 -49193-3 0  9990
2 67672  97.2848  83.7215 0001225 101.7780 209.9541 15.75245023  3982
COSMOS 2600             
1 67674U 26023A   26050.19369654  .00054626  00000+0  25796-3 0  9993
2 67674  96.6479 126.4135 0001215  52.1362 308.0019 15.82910530  2123
2026-023B               
1 67675U 26023B   26050.58326810  .00012819  00000+0  55260-3 0  9991
2 67675  96.6391 125.6303 0018019 194.6254 165.4466 15.22521149  2104
2026-023C               
1 67676U 26023C   26050.58271422  .00011206  00000+0  48209-3 0  9994
2 67676  96.6426 125.6457 0019229 184.4985 175.6084 15.22596288  2268
2026-023D               
1 67677U 26023D   26050.58379752  .00009730  00000+0  42076-3 0  9995
2 67677  96.6457 125.6303 0019349 189.6965 170.3903 15.22453249  2093
2026-023E               
1 67678U 26023E   26050.58296454  .00011677  00000+0  50256-3 0  9995
2 67678  96.6351 125.6282 0019237 188.9687 171.1211 15.22573161  2099
2026-023F               
1 67679U 26023F   26050.58170708  .00009838  00000+0  42179-3 0  9990
2 67679  96.6357 128.1255 0021151 183.8979 176.2098 15.22708588  2081
