CCSDS_OMM_VERS = 2.0
CREATION_DATE  = 
ORIGINATOR     = 

OBJECT_NAME    = STARLINK-36622
OBJECT_ID      = 2026-022V
CENTER_NAME    = EARTH
REF_FRAME      = TEME
TIME_SYSTEM    = UTC
MEAN_ELEMENT_THEORY = SGP/SGP4

EPOCH          = 2026-02-19T14:00:03.000384
MEAN_MOTION    = 15.75254545
ECCENTRICITY   = .0001219
INCLINATION    = 97.2842
RA_OF_ASC_NODE = 83.7085
ARG_OF_PERICENTER = 78.7881
MEAN_ANOMALY   = 200.9662

EPHEMERIS_TYPE = 0
CLASSIFICATION_TYPE = U
NORAD_CAT_ID   = 67667
ELEMENT_SET_NO = 999
REV_AT_EPOCH   = 398
BSTAR          = -.7154421E-3
MEAN_MOTION_DOT = -.105826E-2
MEAN_MOTION_DDOT = 0

CCSDS_OMM_VERS = 2.0
CREATION_DATE  = 
ORIGINATOR     = 

OBJECT_NAME    = STARLINK-36625
OBJECT_ID      = 2026-022W
CENTER_NAME    = EARTH
REF_FRAME      = TEME
TIME_SYSTEM    = UTC
MEAN_ELEMENT_THEORY = SGP/SGP4

EPOCH          = 2026-02-19T14:00:03.000384
MEAN_MOTION    = 15.75234212
ECCENTRICITY   = .00011256
INCLINATION    = 97.2845
RA_OF_ASC_NODE = 83.7117
ARG_OF_PERICENTER = 98.0745
MEAN_ANOMALY   = 189.6627

EPHEMERIS_TYPE = 0
CLASSIFICATION_TYPE = U
NORAD_CAT_ID   = 67668
ELEMENT_SET_NO = 999
REV_AT_EPOCH   = 398
BSTAR          = -.34909714E-3
MEAN_MOTION_DOT = -.51982E-3
MEAN_MOTION_DDOT = 0

CCSDS_OMM_VERS = 2.0
CREATION_DATE  = 
ORIGINATOR     = 

OBJECT_NAME    = STARLINK-36639
OBJECT_ID      = 2026-022X
CENTER_NAME    = EARTH
REF_FRAME      = TEME
TIME_SYSTEM    = UTC
MEAN_ELEMENT_THEORY = SGP/SGP4

EPOCH          = 2026-02-19T14:00:03.000384
MEAN_MOTION    = 15.75265620
ECCENTRICITY   = .00013605
INCLINATION    = 97.2846
RA_OF_ASC_NODE = 83.7158
ARG_OF_PERICENTER = 93.4413
MEAN_ANOMALY   = 204.2937

EPHEMERIS_TYPE = 0
CLASSIFICATION_TYPE = U
NORAD_CAT_ID   = 67669
ELEMENT_SET_NO = 999
REV_AT_EPOCH   = 398
BSTAR          = -.71412404E-3
MEAN_MOTION_DOT = -.105685E-2
MEAN_MOTION_DDOT = 0

CCSDS_OMM_VERS = 2.0
CREATION_DATE  = 
ORIGINATOR     = 

OBJECT_NAME    = STARLINK-36596
OBJECT_ID      = 2026-022Y
CENTER_NAME    = EARTH
REF_FRAME      = TEME
TIME_SYSTEM    = UTC
MEAN_ELEMENT_THEORY = SGP/SGP4

EPOCH          = 2026-02-19T14:00:03.000384
MEAN_MOTION    = 15.75255571
ECCENTRICITY   = .0001434
INCLINATION    = 97.2847
RA_OF_ASC_NODE = 83.7193
ARG_OF_PERICENTER = 107.7474
MEAN_ANOMALY   = 199.9845

EPHEMERIS_TYPE = 0
CLASSIFICATION_TYPE = U
NORAD_CAT_ID   = 67670
ELEMENT_SET_NO = 999
REV_AT_EPOCH   = 398
BSTAR          = -.63074041E-3
MEAN_MOTION_DOT = -.93453E-3
MEAN_MOTION_DDOT = 0

CCSDS_OMM_VERS = 2.0
CREATION_DATE  = 
ORIGINATOR     = 

OBJECT_NAME    = STARLINK-36297
OBJECT_ID      = 2026-022Z
CENTER_NAME    = EARTH
REF_FRAME      = TEME
TIME_SYSTEM    = UTC
MEAN_ELEMENT_THEORY = SGP/SGP4

EPOCH          = 2026-02-19T14:00:03.000384
MEAN_MOTION    = 15.75248330
ECCENTRICITY   = .00011718
INCLINATION    = 97.2852
RA_OF_ASC_NODE = 83.7249
ARG_OF_PERICENTER = 86.4403
MEAN_ANOMALY   = 233.2953

EPHEMERIS_TYPE = 0
CLASSIFICATION_TYPE = U
NORAD_CAT_ID   = 67671
ELEMENT_SET_NO = 999
REV_AT_EPOCH   = 398
BSTAR          = -.64653883E-3
MEAN_MOTION_DOT = -.95732E-3
MEAN_MOTION_DDOT = 0

CCSDS_OMM_VERS = 2.0
CREATION_DATE  = 
ORIGINATOR     = 

OBJECT_NAME    = STARLINK-36616
OBJECT_ID      = 2026-022AA
CENTER_NAME    = EARTH
REF_FRAME      = TEME
TIME_SYSTEM    = UTC
MEAN_ELEMENT_THEORY = SGP/SGP4

EPOCH          = 2026-02-19T14:00:03.000384
MEAN_MOTION    = 15.75245023
ECCENTRICITY   = .00012256
INCLINATION    = 97.2848
RA_OF_ASC_NODE = 83.7215
ARG_OF_PERICENTER = 101.7780
MEAN_ANOMALY   = 209.9541

EPHEMERIS_TYPE = 0
CLASSIFICATION_TYPE = U
NORAD_CAT_ID   = 67672
ELEMENT_SET_NO = 999
REV_AT_EPOCH   = 398
BSTAR          = -.49192792E-3
MEAN_MOTION_DOT = -.73053E-3
MEAN_MOTION_DDOT = 0

CCSDS_OMM_VERS = 2.0
CREATION_DATE  = 
ORIGINATOR     = 

OBJECT_NAME    = COSMOS 2600
OBJECT_ID      = 2026-023A
CENTER_NAME    = EARTH
REF_FRAME      = TEME
TIME_SYSTEM    = UTC
MEAN_ELEMENT_THEORY = SGP/SGP4

EPOCH          = 2026-02-19T04:38:55.381056
MEAN_MOTION    = 15.82910530
ECCENTRICITY   = .0001215
INCLINATION    = 96.6479
RA_OF_ASC_NODE = 126.4135
ARG_OF_PERICENTER = 52.1362
MEAN_ANOMALY   = 308.0019

EPHEMERIS_TYPE = 0
CLASSIFICATION_TYPE = U
NORAD_CAT_ID   = 67674
ELEMENT_SET_NO = 999
REV_AT_EPOCH   = 212
BSTAR          = .25796119E-3
MEAN_MOTION_DOT = .54626E-3
MEAN_MOTION_DDOT = 0

CCSDS_OMM_VERS = 2.0
CREATION_DATE  = 
ORIGINATOR     = 

OBJECT_NAME    = 2026-023B
OBJECT_ID      = 2026-023B
CENTER_NAME    = EARTH
REF_FRAME      = TEME
TIME_SYSTEM    = UTC
MEAN_ELEMENT_THEORY = SGP/SGP4

EPOCH          = 2026-02-19T13:59:54.363840
MEAN_MOTION    = 15.22521149
ECCENTRICITY   = .00180192
INCLINATION    = 96.6391
RA_OF_ASC_NODE = 125.6303
ARG_OF_PERICENTER = 194.6254
MEAN_ANOMALY   = 165.4466

EPHEMERIS_TYPE = 0
CLASSIFICATION_TYPE = U
NORAD_CAT_ID   = 67675
ELEMENT_SET_NO = 999
REV_AT_EPOCH   = 210
BSTAR          = .55259553E-3
MEAN_MOTION_DOT = .12819E-3
MEAN_MOTION_DDOT = 0

CCSDS_OMM_VERS = 2.0
CREATION_DATE  = 
ORIGINATOR     = 

OBJECT_NAME    = 2026-023C
OBJECT_ID      = 2026-023C
CENTER_NAME    = EARTH
REF_FRAME      = TEME
TIME_SYSTEM    = UTC
MEAN_ELEMENT_THEORY = SGP/SGP4

EPOCH          = 2026-02-19T13:59:06.508608
MEAN_MOTION    = 15.22596288
ECCENTRICITY   = .00192295
INCLINATION    = 96.6426
RA_OF_ASC_NODE = 125.6457
ARG_OF_PERICENTER = 184.4985
MEAN_ANOMALY   = 175.6084

EPHEMERIS_TYPE = 0
CLASSIFICATION_TYPE = U
NORAD_CAT_ID   = 67676
ELEMENT_SET_NO = 999
REV_AT_EPOCH   = 226
BSTAR          = .48208952E-3
MEAN_MOTION_DOT = .11206E-3
MEAN_MOTION_DDOT = 0

CCSDS_OMM_VERS = 2.0
CREATION_DATE  = 
ORIGINATOR     = 

OBJECT_NAME    = 2026-023D
OBJECT_ID      = 2026-023D
CENTER_NAME    = EARTH
REF_FRAME      = TEME
TIME_SYSTEM    = UTC
MEAN_ELEMENT_THEORY = SGP/SGP4

EPOCH          = 2026-02-19T14:00:40.105728
MEAN_MOTION    = 15.22453249
ECCENTRICITY   = .00193493
INCLINATION    = 96.6457
RA_OF_ASC_NODE = 125.6303
ARG_OF_PERICENTER = 189.6965
MEAN_ANOMALY   = 170.3903

EPHEMERIS_TYPE = 0
CLASSIFICATION_TYPE = U
NORAD_CAT_ID   = 67677
ELEMENT_SET_NO = 999
REV_AT_EPOCH   = 209
BSTAR          = .42076169E-3
MEAN_MOTION_DOT = .973E-4
MEAN_MOTION_DDOT = 0

CCSDS_OMM_VERS = 2.0
CREATION_DATE  = 
ORIGINATOR     = 

OBJECT_NAME    = 2026-023E
OBJECT_ID      = 2026-023E
CENTER_NAME    = EARTH
REF_FRAME      = TEME
TIME_SYSTEM    = UTC
MEAN_ELEMENT_THEORY = SGP/SGP4

EPOCH          = 2026-02-19T13:59:28.136256
MEAN_MOTION    = 15.22573161
ECCENTRICITY   = .0019237
INCLINATION    = 96.6351
RA_OF_ASC_NODE = 125.6282
ARG_OF_PERICENTER = 188.9687
MEAN_ANOMALY   = 171.1211

EPHEMERIS_TYPE = 0
CLASSIFICATION_TYPE = U
NORAD_CAT_ID   = 67678
ELEMENT_SET_NO = 999
REV_AT_EPOCH   = 209
BSTAR          = .50255868E-3
MEAN_MOTION_DOT = .11677E-3
MEAN_MOTION_DDOT = 0

CCSDS_OMM_VERS = 2.0
CREATION_DATE  = 
ORIGINATOR     = 

OBJECT_NAME    = 2026-023F
OBJECT_ID      = 2026-023F
CENTER_NAME    = EARTH
REF_FRAME      = TEME
TIME_SYSTEM    = UTC
MEAN_ELEMENT_THEORY = SGP/SGP4

EPOCH          = 2026-02-19T13:57:39.491712
MEAN_MOTION    = 15.22708588
ECCENTRICITY   = .0021151
INCLINATION    = 96.6357
RA_OF_ASC_NODE = 128.1255
ARG_OF_PERICENTER = 183.8979
MEAN_ANOMALY   = 176.2098

EPHEMERIS_TYPE = 0
CLASSIFICATION_TYPE = U
NORAD_CAT_ID   = 67679
ELEMENT_SET_NO = 999
REV_AT_EPOCH   = 208
BSTAR          = .42179096E-3
MEAN_MOTION_DOT = .9838E-4
MEAN_MOTION_DDOT = 0

